OBJECT_NAME,OBJECT_ID,EPOCH,MEAN_MOTION,ECCENTRICITY,INCLINATION,RA_OF_ASC_NODE,ARG_OF_PERICENTER,MEAN_ANOMALY,EPHEMERIS_TYPE,CLASSIFICATION_TYPE,NORAD_CAT_ID,ELEMENT_SET_NO,REV_AT_EPOCH,BSTAR,MEAN_MOTION_DOT,MEAN_MOTION_DDOT
COSMO-SKYMED 1,2007-023A,2026-07-11T12:42:38.466432,14.97208879,.0001131,97.8843,24.5913,100.0621,260.0728,0,U,31598,999,3343,.11985E-3,.1326E-4,0
COSMOS 2428,2007-029A,2026-07-11T11:56:22.551072,14.12932389,.0007177,70.9382,303.4349,88.4564,271.7379,0,U,31792,999,98158,.11744E-3,.171E-5,0
SL-16 R/B,2007-029B,2026-07-11T12:09:29.889216,14.14850737,.0002049,70.9749,272.1070,256.7031,193.6200,0,U,31793,999,98288,.19366E-4,-.1E-6,0
KORONAS-FOTON,2009-003A,2026-07-11T06:52:03.391968,15.46234635,.0012396,82.4297,147.1115,74.3126,285.9489,0,U,33504,999,96482,.16035E-3,.7945E-4,0
CZ-2C R/B,2011-030B,2026-07-11T08:56:22.182144,14.81527848,.0051017,97.8668,147.3247,308.9140,202.7616,0,U,37731,999,80840,.82603E-4,.607E-5,0
H-2A R/B,2012-025E,2026-07-11T12:09:51.580800,14.95831982,.0042325,98.4849,169.6614,267.6471,91.9901,0,U,38341,999,76672,.85785E-4,.903E-5,0
SHIJIAN-16 (SJ-16),2013-057A,2026-07-11T12:04:08.059584,14.92666393,.0015932,74.9736,310.6277,173.8429,186.2959,0,U,39358,999,68997,.1292E-3,.1306E-4,0
SL-4 R/B,2014-021B,2026-07-11T02:30:31.354848,15.42429106,.0089882,51.6060,93.5584,193.4185,166.4409,0,U,39679,999,67530,.12262E-3,.5764E-4,0
ALOS-2,2014-029A,2026-07-11T01:56:55.564224,14.79474805,.0001625,97.9222,288.9034,93.1254,267.0143,0,U,39766,999,65511,.62362E-4,.414E-5,0
YAOGAN-29,2015-069A,2026-07-11T12:48:25.328736,14.83105460,.0001073,98.0028,221.2039,18.4348,341.6904,0,U,41038,999,57423,.31776E-4,.205E-5,0
ASTRO-H (HITOMI),2016-012A,2026-07-11T10:00:34.518816,15.10623257,.0009574,30.9994,277.6935,137.3545,222.7837,0,U,41337,999,57095,.8972E-4,.1617E-4,0
HXMT (HUIYAN),2017-034A,2026-07-11T12:52:58.471968,15.18668800,.0032633,43.0150,47.4371,298.4329,61.3233,0,U,42758,999,50136,.15185E-3,.3002E-4,0
SAOCOM 1A,2018-076A,2026-07-11T12:10:33.621312,14.82145204,.0001461,97.8891,18.9029,84.0660,276.0719,0,U,43641,999,41970,-.13827E-4,-.162E-5,0
H-2A R/B,2018-084L,2026-07-11T03:31:04.632960,15.46095184,.002071,98.8547,76.2871,315.5690,44.3893,0,U,43682,999,42482,.26979E-3,.13195E-3,0
SAOCOM 1B,2020-059A,2026-07-11T12:55:31.979712,14.82156324,.0001529,97.8895,18.0296,82.5245,277.6142,0,U,46265,999,31709,.38057E-4,.251E-5,0
CSS (TIANHE),2021-035A,2026-07-11T08:51:22.176288,15.58018409,.0002483,41.4687,175.0236,288.9992,71.0577,0,U,48274,999,29694,.22608E-4,.1415E-4,0
CZ-2C R/B,2022-058K,2026-07-10T23:09:40.279392,15.63611371,.0030552,50.1860,39.6356,5.0347,355.0929,0,U,52794,999,22936,.29996E-3,.28709E-3,0
CZ-2C R/B,2022-132E,2026-07-11T12:23:56.520096,15.74621353,.0010151,97.2900,200.6804,357.9032,2.2188,0,U,54039,999,20977,.3036E-3,.44423E-3,0
GSLV R/B,2022-138AN,2026-07-11T10:39:58.398624,14.97373392,.0023893,87.3817,124.8387,64.7954,295.5751,0,U,54149,999,20244,.11104E-3,.1326E-4,0
XRISM,2023-137A,2026-07-11T09:49:09.931008,15.12653502,.0007838,31.0007,202.6776,208.6647,151.3561,0,U,57800,999,15653,.12034E-3,.2256E-4,0
ACS3,2024-077B,2026-07-11T09:09:59.791392,13.95362059,.0119151,97.1715,105.8020,41.5448,319.4699,0,U,59588,999,11141,.41135E-2,.5886E-4,0
SPACEMOBILE-003,2024-163A,2026-07-10T09:58:38.004096,15.20785714,.0005791,52.9615,202.6161,185.1427,174.9508,0,U,61045,999,10130,.10927E-4,-.84E-6,0
SPACEMOBILE-005,2024-163B,2026-07-11T10:49:01.909056,15.20765383,.0008895,52.9788,197.8076,184.8633,175.2276,0,U,61046,999,10145,.15155E-3,.3056E-4,0
SPACEMOBILE-001,2024-163C,2026-07-10T01:39:25.476768,15.20815495,.00075534,52.9749,203.8741,178.7608,181.3406,0,U,61047,999,10124,.37894656E-4,.518E-5,0
SPACEMOBILE-002,2024-163D,2026-07-11T00:55:48.887328,15.20841812,.000662,52.9623,199.4399,180.9990,179.0992,0,U,61048,999,10139,.38281E-3,.8243E-4,0
SPACEMOBILE-004,2024-163E,2026-07-09T13:48:46.986048,15.20814564,.00081135,52.9654,205.9666,207.5207,152.5359,0,U,61049,999,10117,-.61664582E-3,-.14088E-3,0
CZ-8A R/B,2025-231K,2026-07-11T12:11:40.780032,14.30161531,.0116516,50.0050,295.8455,309.6324,49.4354,0,U,66004,999,3842,.24968E-4,-.94E-6,0
SZ-21 MODULE,2025-246C,2026-07-10T22:58:21.164160,15.78504518,.0007339,41.4697,159.0508,191.9167,168.1505,0,U,66515,999,3749,.20325E-3,.36243E-3,0
SPACEMOBILE-006,2025-309A,2026-07-11T11:01:53.785056,15.18647644,.0010403,52.9930,220.4488,203.4538,156.5982,0,U,67232,999,3028,.25641E-4,.216E-5,0
