COSMO-SKYMED 1          
1 31598U 07023A   26192.52961188  .00001326  00000+0  11985-3 0  9996
2 31598  97.8843  24.5913 0001131 100.0621 260.0728 14.97208879 33430
COSMOS 2428             
1 31792U 07029A   26192.49748323  .00000171  00000+0  11744-3 0  9998
2 31792  70.9382 303.4349 0007177  88.4564 271.7379 14.12932389981585
SL-16 R/B               
1 31793U 07029B   26192.50659594 -.00000010  00000+0  19366-4 0  9994
2 31793  70.9749 272.1070 0002049 256.7031 193.6200 14.14850737982885
KORONAS-FOTON           
1 33504U 09003A   26192.28615037  .00007945  00000+0  16035-3 0  9991
2 33504  82.4297 147.1115 0012396  74.3126 285.9489 15.46234635964826
CZ-2C R/B               
1 37731U 11030B   26192.37247896  .00000607  00000+0  82603-4 0  9997
2 37731  97.8668 147.3247 0051017 308.9140 202.7616 14.81527848808406
H-2A R/B                
1 38341U 12025E   26192.50684700  .00000903  00000+0  85785-4 0  9997
2 38341  98.4849 169.6614 0042325 267.6471  91.9901 14.95831982766722
SHIJIAN-16 (SJ-16)      
1 39358U 13057A   26192.50287106  .00001306  00000+0  12920-3 0  9999
2 39358  74.9736 310.6277 0015932 173.8429 186.2959 14.92666393689974
SL-4 R/B                
1 39679U 14021B   26192.10452957  .00005764  00000+0  12262-3 0  9992
2 39679  51.6060  93.5584 0089882 193.4185 166.4409 15.42429106675309
ALOS-2                  
1 39766U 14029A   26192.08119866  .00000414  00000+0  62362-4 0  9997
2 39766  97.9222 288.9034 0001625  93.1254 267.0143 14.79474805655116
YAOGAN-29               
1 41038U 15069A   26192.53362649  .00000205  00000+0  31776-4 0  9999
2 41038  98.0028 221.2039 0001073  18.4348 341.6904 14.83105460574233
ASTRO-H (HITOMI)        
1 41337U 16012A   26192.41706619  .00001617  00000+0  89720-4 0  9996
2 41337  30.9994 277.6935 0009574 137.3545 222.7837 15.10623257570955
HXMT (HUIYAN)           
1 42758U 17034A   26192.53678787  .00003002  00000+0  15185-3 0  9999
2 42758  43.0150  47.4371 0032633 298.4329  61.3233 15.18668800501367
SAOCOM 1A               
1 43641U 18076A   26192.50733358 -.00000162  00000+0 -13827-4 0  9999
2 43641  97.8891  18.9029 0001461  84.0660 276.0719 14.82145204419701
H-2A R/B                
1 43682U 18084L   26192.14658140  .00013195  00000+0  26979-3 0  9997
2 43682  98.8547  76.2871 0020710 315.5690  44.3893 15.46095184424820
SAOCOM 1B               
1 46265U 20059A   26192.53856458  .00000251  00000+0  38057-4 0  9997
2 46265  97.8895  18.0296 0001529  82.5245 277.6142 14.82156324317095
CSS (TIANHE)            
1 48274U 21035A   26192.36900667  .00001415  00000+0  22608-4 0  9995
2 48274  41.4687 175.0236 0002483 288.9992  71.0577 15.58018409296943
CZ-2C R/B               
1 52794U 22058K   26191.96504953  .00028709  00000+0  29996-3 0  9997
2 52794  50.1860  39.6356 0030552   5.0347 355.0929 15.63611371229364
CZ-2C R/B               
1 54039U 22132E   26192.51662639  .00044423  00000+0  30360-3 0  9990
2 54039  97.2900 200.6804 0010151 357.9032   2.2188 15.74621353209770
GSLV R/B                
1 54149U 22138AN  26192.44442591  .00001326  00000+0  11104-3 0  9993
2 54149  87.3817 124.8387 0023893  64.7954 295.5751 14.97373392202446
XRISM                   
1 57800U 23137A   26192.40914272  .00002256  00000+0  12034-3 0  9992
2 57800  31.0007 202.6776 0007838 208.6647 151.3561 15.12653502156534
ACS3                    
1 59588U 24077B   26192.38194203  .00005886  00000+0  41135-2 0  9997
2 59588  97.1715 105.8020 0119151  41.5448 319.4699 13.95362059111419
SPACEMOBILE-003         
1 61045U 24163A   26191.41571764 -.00000084  00000+0  10927-4 0  9991
2 61045  52.9615 202.6161 0005791 185.1427 174.9508 15.20785714101303
SPACEMOBILE-005         
1 61046U 24163B   26192.45071654  .00003056  00000+0  15155-3 0  9998
2 61046  52.9788 197.8076 0008895 184.8633 175.2276 15.20765383101450
SPACEMOBILE-001         
1 61047U 24163C   26191.06904487  .00000518  00000+0  37895-4 0  9990
2 61047  52.9749 203.8741 0007553 178.7608 181.3406 15.20815495101249
SPACEMOBILE-002         
1 61048U 24163D   26192.03876027  .00008243  00000+0  38281-3 0  9999
2 61048  52.9623 199.4399 0006620 180.9990 179.0992 15.20841812101395
SPACEMOBILE-004         
1 61049U 24163E   26190.57554382 -.00014088  00000+0 -61665-3 0  9992
2 61049  52.9654 205.9666 0008113 207.5207 152.5359 15.20814564101179
CZ-8A R/B               
1 66004U 25231K   26192.50811088 -.00000094  00000+0  24968-4 0  9996
2 66004  50.0050 295.8455 0116516 309.6324  49.4354 14.30161531 38424
SZ-21 MODULE            
1 66515U 25246C   26191.95718940  .00036243  00000+0  20325-3 0  9996
2 66515  41.4697 159.0508 0007339 191.9167 168.1505 15.78504518 37493
SPACEMOBILE-006         
1 67232U 25309A   26192.45965029  .00000216  00000+0  25641-4 0  9999
2 67232  52.9930 220.4488 0010403 203.4538 156.5982 15.18647644 30286
